FENGYUN 1C DEB          
1 31921U 99025CLY 17334.73315875  .00000394  00000-0  43320-3 0  9999
2 31921  99.4358 248.1230 0214311 332.9067  80.0758 13.68897737521058
